{
  "type": "FeatureCollection",
  "features": [
    {
      "type": "Feature",
      "properties": {
        "norad_id": 66683,
        "name": "TRANSPORTER-15 T",
        "group": "last-30-days",
        "lat": -56.210021063717676,
        "lon": 76.6990836140188,
        "alt_km": 519.9117131434605,
        "timestamp": "2025-12-19T18:58:40.327006+00:00",
        "meta_object_name": "TRANSPORTER-15 T",
        "meta_object_id": "2025-276T",
        "meta_epoch": "2025-12-19T03:23:50.587872",
        "meta_mean_motion": 15.16968427,
        "meta_eccentricity": 0.00046256,
        "meta_inclination": 97.4466,
        "meta_ra_of_asc_node": 64.7901,
        "meta_arg_of_pericenter": 258.4191,
        "meta_mean_anomaly": 101.6523,
        "meta_ephemeris_type": 0,
        "meta_classification_type": "U",
        "meta_norad_cat_id": 66683,
        "meta_element_set_no": 999,
        "meta_rev_at_epoch": 309,
        "meta_bstar": 0.00028411007,
        "meta_mean_motion_dot": 5.544e-05,
        "meta_mean_motion_ddot": 0,
        "tle_line1": "1 66683U 25276T   25353.14155773  .00005544  00000+0  28411-3 0  9998",
        "tle_line2": "2 66683  97.4466  64.7901 0004625 258.4191 101.6523 15.16968427  3090"
      },
      "geometry": {
        "type": "Point",
        "coordinates": [
          76.6990836140188,
          -56.210021063717676
        ]
      }
    },
    {
      "type": "Feature",
      "properties": {
        "norad_id": 66684,
        "name": "TRANSPORTER-15 U",
        "group": "last-30-days",
        "lat": -42.50879388413901,
        "lon": 72.32831307304619,
        "alt_km": 519.3880878142963,
        "timestamp": "2025-12-19T18:58:40.327018+00:00",
        "meta_object_name": "TRANSPORTER-15 U",
        "meta_object_id": "2025-276U",
        "meta_epoch": "2025-12-18T03:35:45.403584",
        "meta_mean_motion": 15.17214477,
        "meta_eccentricity": 0.00044213,
        "meta_inclination": 97.449,
        "meta_ra_of_asc_node": 63.8272,
        "meta_arg_of_pericenter": 261.298,
        "meta_mean_anomaly": 98.7753,
        "meta_ephemeris_type": 0,
        "meta_classification_type": "U",
        "meta_norad_cat_id": 66684,
        "meta_element_set_no": 999,
        "meta_rev_at_epoch": 294,
        "meta_bstar": 0.00053836659,
        "meta_mean_motion_dot": 0.00010646,
        "meta_mean_motion_ddot": 0,
        "tle_line1": "1 66684U 25276U   25352.14983106  .00010646  00000+0  53837-3 0  9996",
        "tle_line2": "2 66684  97.4490  63.8272 0004421 261.2980  98.7753 15.17214477  2945"
      },
      "geometry": {
        "type": "Point",
        "coordinates": [
          72.32831307304619,
          -42.50879388413901
        ]
      }
    },
    {
      "type": "Feature",
      "properties": {
        "norad_id": 66685,
        "name": "TRANSPORTER-15 V",
        "group": "last-30-days",
        "lat": -37.08451429201232,
        "lon": 71.09971019725337,
        "alt_km": 518.1749132088135,
        "timestamp": "2025-12-19T18:58:40.327028+00:00",
        "meta_object_name": "TRANSPORTER-15 V",
        "meta_object_id": "2025-276V",
        "meta_epoch": "2025-12-19T00:09:01.238976",
        "meta_mean_motion": 15.17368661,
        "meta_eccentricity": 0.00040176,
        "meta_inclination": 97.4434,
        "meta_ra_of_asc_node": 64.6576,
        "meta_arg_of_pericenter": 281.7671,
        "meta_mean_anomaly": 78.3111,
        "meta_ephemeris_type": 0,
        "meta_classification_type": "U",
        "meta_norad_cat_id": 66685,
        "meta_element_set_no": 999,
        "meta_rev_at_epoch": 307,
        "meta_bstar": 0.00056781143,
        "meta_mean_motion_dot": 0.00011282,
        "meta_mean_motion_ddot": 0,
        "tle_line1": "1 66685U 25276V   25353.00626434  .00011282  00000+0  56781-3 0  9999",
        "tle_line2": "2 66685  97.4434  64.6576 0004017 281.7671  78.3111 15.17368661  3077"
      },
      "geometry": {
        "type": "Point",
        "coordinates": [
          71.09971019725337,
          -37.08451429201232
        ]
      }
    },
    {
      "type": "Feature",
      "properties": {
        "norad_id": 66686,
        "name": "TRANSPORTER-15 W",
        "group": "last-30-days",
        "lat": -51.81842958858644,
        "lon": 75.00473942077215,
        "alt_km": 520.2028262557415,
        "timestamp": "2025-12-19T18:58:40.327038+00:00",
        "meta_object_name": "TRANSPORTER-15 W",
        "meta_object_id": "2025-276W",
        "meta_epoch": "2025-12-19T04:57:37.831968",
        "meta_mean_motion": 15.16953893,
        "meta_eccentricity": 0.00040504,
        "meta_inclination": 97.4463,
        "meta_ra_of_asc_node": 64.8574,
        "meta_arg_of_pericenter": 260.8428,
        "meta_mean_anomaly": 99.2347,
        "meta_ephemeris_type": 0,
        "meta_classification_type": "U",
        "meta_norad_cat_id": 66686,
        "meta_element_set_no": 999,
        "meta_rev_at_epoch": 310,
        "meta_bstar": 0.000122519,
        "meta_mean_motion_dot": 2.351e-05,
        "meta_mean_motion_ddot": 0,
        "tle_line1": "1 66686U 25276W   25353.20668787  .00002351  00000+0  12252-3 0  9991",
        "tle_line2": "2 66686  97.4463  64.8574 0004050 260.8428  99.2347 15.16953893  3108"
      },
      "geometry": {
        "type": "Point",
        "coordinates": [
          75.00473942077215,
          -51.81842958858644
        ]
      }
    },
    {
      "type": "Feature",
      "properties": {
        "norad_id": 66687,
        "name": "TRANSPORTER-15 X",
        "group": "last-30-days",
        "lat": -76.04463356148601,
        "lon": 97.12990884037629,
        "alt_km": 527.9702772001247,
        "timestamp": "2025-12-19T18:58:40.327048+00:00",
        "meta_object_name": "TRANSPORTER-15 X",
        "meta_object_id": "2025-276X",
        "meta_epoch": "2025-12-19T03:29:15.187488",
        "meta_mean_motion": 15.16623915,
        "meta_eccentricity": 0.00084967,
        "meta_inclination": 97.4403,
        "meta_ra_of_asc_node": 64.7687,
        "meta_arg_of_pericenter": 65.7808,
        "meta_mean_anomaly": 294.4312,
        "meta_ephemeris_type": 0,
        "meta_classification_type": "U",
        "meta_norad_cat_id": 66687,
        "meta_element_set_no": 999,
        "meta_rev_at_epoch": 309,
        "meta_bstar": 0.0002869943,
        "meta_mean_motion_dot": 5.549e-05,
        "meta_mean_motion_ddot": 0,
        "tle_line1": "1 66687U 25276X   25353.14531467  .00005549  00000+0  28699-3 0  9993",
        "tle_line2": "2 66687  97.4403  64.7687 0008496  65.7808 294.4312 15.16623915  3097"
      },
      "geometry": {
        "type": "Point",
        "coordinates": [
          97.12990884037629,
          -76.04463356148601
        ]
      }
    },
    {
      "type": "Feature",
      "properties": {
        "norad_id": 66688,
        "name": "TRANSPORTER-15 Y",
        "group": "last-30-days",
        "lat": -47.72545254506788,
        "lon": 73.69720309762785,
        "alt_km": 519.9912498132571,
        "timestamp": "2025-12-19T18:58:40.327058+00:00",
        "meta_object_name": "TRANSPORTER-15 Y",
        "meta_object_id": "2025-276Y",
        "meta_epoch": "2025-12-19T03:21:35.364960",
        "meta_mean_motion": 15.17034037,
        "meta_eccentricity": 0.00036345,
        "meta_inclination": 97.4446,
        "meta_ra_of_asc_node": 64.7884,
        "meta_arg_of_pericenter": 266.023,
        "meta_mean_anomaly": 94.0588,
        "meta_ephemeris_type": 0,
        "meta_classification_type": "U",
        "meta_norad_cat_id": 66688,
        "meta_element_set_no": 999,
        "meta_rev_at_epoch": 309,
        "meta_bstar": 0.00026094295,
        "meta_mean_motion_dot": 5.095e-05,
        "meta_mean_motion_ddot": 0,
        "tle_line1": "1 66688U 25276Y   25353.13999265  .00005095  00000+0  26094-3 0  9990",
        "tle_line2": "2 66688  97.4446  64.7884 0003634 266.0230  94.0588 15.17034037  3099"
      },
      "geometry": {
        "type": "Point",
        "coordinates": [
          73.69720309762785,
          -47.72545254506788
        ]
      }
    },
    {
      "type": "Feature",
      "properties": {
        "norad_id": 66689,
        "name": "TRANSPORTER-15 Z",
        "group": "last-30-days",
        "lat": -31.200881592583727,
        "lon": 69.97264250083613,
        "alt_km": 519.7324883596439,
        "timestamp": "2025-12-19T18:58:40.327069+00:00",
        "meta_object_name": "TRANSPORTER-15 Z",
        "meta_object_id": "2025-276Z",
        "meta_epoch": "2025-12-19T06:27:11.793600",
        "meta_mean_motion": 15.17179733,
        "meta_eccentricity": 0.00013787,
        "meta_inclination": 97.4426,
        "meta_ra_of_asc_node": 64.9191,
        "meta_arg_of_pericenter": 291.1833,
        "meta_mean_anomaly": 68.9253,
        "meta_ephemeris_type": 0,
        "meta_classification_type": "U",
        "meta_norad_cat_id": 66689,
        "meta_element_set_no": 999,
        "meta_rev_at_epoch": 311,
        "meta_bstar": 0.00010861351,
        "meta_mean_motion_dot": 2.09e-05,
        "meta_mean_motion_ddot": 0,
        "tle_line1": "1 66689U 25276Z   25353.26888650  .00002090  00000+0  10861-3 0  9997",
        "tle_line2": "2 66689  97.4426  64.9191 0001378 291.1833  68.9253 15.17179733  3117"
      },
      "geometry": {
        "type": "Point",
        "coordinates": [
          69.97264250083613,
          -31.200881592583727
        ]
      }
    }
  ]
}